
STARLINK-3762           
1 52374U 22045AV  25004.25178246  .00002574  00000+0  17968-3 0  9991
2 52374  53.2184 316.9444 0001024  88.3848 271.7261 15.08848979151094
STARLINK-3785           
1 52375U 22045AW  25005.11658591 -.00003774  00000+0 -21913-3 0  9994
2 52375  53.2183 313.0625 0001330  89.4751 270.6394 15.08847130151226
STARLINK-3767           
1 52376U 22045AX  25005.17176727  .00009138  00000+0  59110-3 0  9995
2 52376  53.2192 312.8095 0001614  72.0020 288.1148 15.08863446151237
STARLINK-3805           
1 52377U 22045AY  25005.12764552  .00004080  00000+0  27420-3 0  9990
2 52377  53.2201 313.2311 0001371 103.7455 256.3690 15.08851822151211
STARLINK-3806           
1 52378U 22045AZ  25005.16441336  .00008493  00000+0  55078-3 0  9999
2 52378  53.2199 312.8442 0001098  63.8400 296.2705 15.08859067151231
STARLINK-3800           
1 52379U 22045BA  25005.10186934  .00028727  00000+0  18129-2 0  9991
2 52379  53.2174 313.1268 0001596  76.5086 283.6084 15.08896279151224
STARLINK-3793           
1 52380U 22045BB  25005.14693131  .00005787  00000+0  38105-3 0  9997
2 52380  53.2191 302.9518 0001467  78.5886 281.5270 15.08875497151364
STARLINK-3799           
1 52382U 22045BD  25005.15705856  .00009787  00000+0  63191-3 0  9995
2 52382  53.2205 312.8887 0001244  78.3169 281.7962 15.08855158151234
STARLINK-3811           
1 52383U 22045BE  25004.84887013  .00005457  00000+0  36049-3 0  9999
2 52383  53.2184 304.2929 0001165  81.9982 278.1142 15.08857439151322
JILIN-1 GAOFEN 4A       
1 52388U 22046A   25005.20497724  .00044590  00000+0  13299-2 0  9994
2 52388  97.4938  99.0236 0011393 107.7115 252.5372 15.34451276148575
JILIN-1 GAOFEN 3D04     
1 52389U 22046B   25005.24401815  .00037342  00000+0  13073-2 0  9992
2 52389  97.4987 100.8387 0005448 143.2969 216.8644 15.29390409148674
JILIN-1 GAOFEN 3D05     
1 52390U 22046C   25005.21590777  .00039516  00000+0  13518-2 0  9996
2 52390  97.4901 100.0881 0001184 129.4734 230.6611 15.30143408148688
JILIN-1 GAOFEN 3D06     
1 52391U 22046D   25005.23521215  .00039198  00000+0  13457-2 0  9998
2 52391  97.5070 102.0102 0002886 102.8639 257.2923 15.30026280148694
JILIN-1 GAOFEN 3D07     
1 52392U 22046E   25005.23111611  .00045514  00000+0  13981-2 0  9995
2 52392  97.4982 101.8148 0000767 237.9712 122.1455 15.33572542148747
BRO-6                   
1 52422U 22047AE  25005.16342564  .00023619  00000+0  79819-3 0  9990
2 52422  97.3795  88.8936 0006406 160.0857 200.0635 15.30630493149927
JILIN-1 KUANFU 01C      
1 52443U 22048A   25005.19595441  .00012516  00000+0  63614-3 0  9991
2 52443  97.5768  84.6507 0010906 155.3151 204.8606 15.16956104147498
JILIN-1 GAOFEN 3D27     
1 52444U 22048B   25005.21881183  .00034273  00000+0  12859-2 0  9994
2 52444  97.5832  91.8337 0011144 139.2093 220.9981 15.27088401147968
JILIN-1 GAOFEN 3D28     
1 52445U 22048C   25005.19151233  .00035423  00000+0  13171-2 0  9994
2 52445  97.5798  91.5325 0009305 156.4886 203.6780 15.27397107147962
JILIN-1 GAOFEN 3D29     
1 52446U 22048D   25005.20555745  .00034149  00000+0  12696-2 0  9998
2 52446  97.5833  92.0111 0007399 125.0799 235.1135 15.27424265147979
JILIN-1 GAOFEN 3D30     
1 52447U 22048E   25005.24427466  .00036302  00000+0  13084-2 0  9996
2 52447  97.5814  92.3469 0013546 144.2140 216.0009 15.28371936148013
JILIN-1 GAOFEN 3D31     
1 52448U 22048F   25005.19570989  .00035087  00000+0  12892-2 0  9995
2 52448  97.5815  91.9834 0005976 177.5842 182.5426 15.27815762147986
JILIN-1 GAOFEN 3D32     
1 52449U 22048G   25005.19016186  .00064705  00000+0  13714-2 0  9993
2 52449  97.5828  96.6960 0007411 131.7047 228.4836 15.44832070148276
JILIN-1 GAOFEN 3D33     
1 52450U 22048H   25005.20509044  .00048173  00000+0  13035-2 0  9994
2 52450  97.5842  95.3775 0009376 119.4501 240.7680 15.37501644148191
STARLINK-3870           
1 52451U 22049A   25004.93994137  .00001008  00000+0  81401-4 0  9996
2 52451  53.2174 193.8538 0001720  92.3087 267.8102 15.08837324147387
STARLINK-3909           
1 52452U 22049B   25004.81849392  .00001639  00000+0  12108-3 0  9993
2 52452  53.2153 194.2701 0001147  85.4483 274.6641 15.08831154147365
STARLINK-3872           
1 52453U 22049C   25004.93258255  .00004326  00000+0  28964-3 0  9992
2 52453  53.2146 193.8870 0001275  90.1343 269.9795 15.08846859147545
STARLINK-3888           
1 52454U 22049D   25004.93628305 -.00002298  00000+0 -12639-3 0  9990
2 52454  53.2158 193.8694 0000549  71.1137 288.9915 15.08840747147383
STARLINK-3890           
1 52455U 22049E   25004.92987180  .00000374  00000+0  41587-4 0  9995
2 52455  53.2155 193.8989 0001593  85.0113 275.1061 15.08829095147389
STARLINK-3896           
1 52456U 22049F   25004.79369847  .00001722  00000+0  12626-3 0  9994
2 52456  53.2147 194.5082 0001428  90.5670 269.5486 15.08839752147366
STARLINK-3899           
1 52457U 22049G   25004.92154188  .00005597  00000+0  36939-3 0  9997
2 52457  53.2143 193.9267 0001484  88.0628 272.0534 15.08850254147383
STARLINK-3898           
1 52458U 22049H   25004.91881381  .00001318  00000+0  10090-3 0  9996
2 52458  53.2159 193.9488 0001396  84.0898 276.0253 15.08842168147380
STARLINK-3856           
1 52459U 22049J   25004.97029725  .00001159  00000+0  90897-4 0  9996
2 52459  53.2163 183.7155 0001310  95.0116 265.1026 15.08842586147689
STARLINK-3900           
1 52461U 22049L   25004.90130432  .00000285  00000+0  36000-4 0  9995
2 52461  53.2158 174.0247 0001325  84.8481 275.2662 15.08832776147811
STARLINK-3903           
1 52462U 22049M   25004.89765843  .00000671  00000+0  60255-4 0  9992
2 52462  53.2147 184.0525 0001623  83.9008 276.2169 15.08838581147673
STARLINK-3885           
1 52463U 22049N   25004.83138193  .00000166  00000+0  28513-4 0  9999
2 52463  53.2137 174.3404 0001259  90.1324 269.9813 15.08835105147806
STARLINK-3904           
1 52464U 22049P   25004.90038299  .00002081  00000+0  14879-3 0  9991
2 52464  53.2172 184.0300 0001453  90.5472 269.5686 15.08840533147516
STARLINK-3863           
1 52465U 22049Q   25004.82769809  .00002138  00000+0  15239-3 0  9995
2 52465  53.2158 174.3548 0001400  92.1863 267.9290 15.08834550147808
STARLINK-3840           
1 52466U 22049R   25004.86021432  .00072472  00000+0  20125-2 0  9990
2 52466  53.1929 166.9305 0000762  22.0848 338.0189 15.36259729147916
STARLINK-3873           
1 52467U 22049S   25004.82678223  .00000242  00000+0  33308-4 0  9998
2 52467  53.2143 184.3599 0001575  86.1963 273.9209 15.08839367147503
STARLINK-3864           
1 52468U 22049T   25004.81207004  .00000148  00000+0  27382-4 0  9993
2 52468  53.2150 184.4245 0001266  94.4328 265.6808 15.08830424147660
STARLINK-3828           
1 52469U 22049U   25004.81942674 -.00001496  00000+0 -75899-4 0  9998
2 52469  53.2149 184.3895 0001579  86.0334 274.0838 15.08848844147505
STARLINK-3859           
1 52470U 22049V   25004.87094372  .00000703  00000+0  62265-4 0  9990
2 52470  53.2139 184.1579 0001352  79.9323 280.1821 15.08836216147679
STARLINK-3862           
1 52471U 22049W   25004.81669396 -.00006060  00000+0 -36285-3 0  9995
2 52471  53.2154 184.4105 0001287  86.0109 274.1030 15.08853574147506
STARLINK-3881           
1 52472U 22049X   25004.93352399 -.00001360  00000+0 -67395-4 0  9996
2 52472  53.2172 183.8780 0002278  80.8304 279.2946 15.08820235147521
STARLINK-3879           
1 52473U 22049Y   25004.87462796  .00004896  00000+0  32554-3 0  9996
2 52473  53.2142 184.1439 0001289  90.2878 269.8261 15.08836958147676
STARLINK-3855           
1 52474U 22049Z   25004.75506421  .00003623  00000+0  24565-3 0  9998
2 52474  53.2140 174.6924 0001462  82.8581 277.2578 15.08836294147632
STARLINK-3882           
1 52475U 22049AA  25004.88937288  .00002518  00000+0  17626-3 0  9994
2 52475  53.2166 184.2988 0001288  86.3204 273.7935 15.08833495147677
STARLINK-3835           
1 52476U 22049AB  25004.83973071  .00000710  00000+0  62689-4 0  9992
2 52476  53.2149 174.5422 0001424  78.0983 282.0169 15.08845275148883
STARLINK-3860           
1 52477U 22049AC  25004.75778645  .00001361  00000+0  10363-3 0  9998
2 52477  53.2131 174.6719 0001310  95.6195 264.4947 15.08829602148872
STARLINK-3825           
1 52478U 22049AD  25004.85990365  .00000219  00000+0  31875-4 0  9998
2 52478  53.2164 184.2123 0001377  95.1501 264.9649 15.08834896148756
STARLINK-3878           
1 52479U 22049AE  25004.80930350  .00001322  00000+0  10115-3 0  9991
2 52479  53.2149 174.4391 0001291  88.2397 271.8743 15.08829491148880
STARLINK-3839           
1 52480U 22049AF  25004.92246393  .00000800  00000+0  68397-4 0  9999
2 52480  53.2165 183.9314 0001846  76.6197 283.5000 15.08835352147524
STARLINK-3813           
1 52482U 22049AH  25004.73571878 -.00004174  00000+0 -24437-3 0  9995
2 52482  53.2166 174.7685 0001507  84.8854 275.2311 15.08834289147634
STARLINK-3875           
1 52483U 22049AJ  25003.81938195 -.00000617  00000+0 -20703-4 0  9994
2 52483  53.2142 178.8825 0001535  94.9123 265.2044 15.08838312148737
STARLINK-3887           
1 52484U 22049AK  25004.78631137  .00000374  00000+0  41620-4 0  9997
2 52484  53.2151 184.5418 0001328  85.6511 274.4633 15.08831314147503
STARLINK-3913           
1 52485U 22049AL  25004.87186107  .00000460  00000+0  47020-4 0  9996
2 52485  53.2149 174.1573 0001437  84.1515 275.9641 15.08839310147652
STARLINK-3918           
1 52486U 22049AM  25004.91142249  .00003563  00000+0  24181-3 0  9990
2 52486  53.2155 183.9811 0001684  80.4853 279.6329 15.08848831147529
STARLINK-3902           
1 52487U 22049AN  25004.88291478  .00002889  00000+0  19949-3 0  9992
2 52487  53.2190 174.2149 0000968  96.7438 263.3664 15.08843424147816
